IRIDIUM 116             
1 43072U 17083C   25004.50915546  .00000043  00000+0  84352-5 0  9994
2 43072  86.3989 182.9598 0002097  96.7693 263.3741 14.34218019368399
IRIDIUM 130             
1 43073U 17083D   25004.47744230  .00000009  00000+0 -38562-5 0  9996
2 43073  86.4003 183.1966 0001749  96.6961 263.4434 14.34217593368330
IRIDIUM 151             
1 43074U 17083E   25004.45207332 -.00000118  00000+0 -49208-4 0  9992
2 43074  86.3998 183.0296 0002032  92.6607 267.4821 14.34215172368354
IRIDIUM 134             
1 43075U 17083F   25004.49012904 -.00000028  00000+0 -16917-4 0  9997
2 43075  86.3999 183.0145 0001831  96.4836 263.6569 14.34216662368320
IRIDIUM 137             
1 43076U 17083G   25004.01443417  .00000023  00000+0  10282-5 0  9996
2 43076  86.3993 183.2946 0002474  98.0084 262.1393 14.34217773368326
IRIDIUM 141             
1 43077U 17083H   25004.56623853 -.00000003  00000+0 -80879-5 0  9990
2 43077  86.3994 182.9255 0001652  83.8729 276.2655 14.34217568368400
IRIDIUM 153             
1 43078U 17083J   25004.37887432  .00000048  00000+0  99817-5 0  9994
2 43078  86.4003 151.5307 0001797  81.0450 279.0949 14.34220205369482
IRIDIUM 131             
1 43079U 17083K   25004.48378768  .00000297  00000+0  98904-4 0  9995
2 43079  86.3996 183.1102 0002078  87.2218 272.9215 14.34216760368321
